[{"OBJECT_NAME":"STARLINK-30706","OBJECT_ID":"2023-148N","EPOCH":"2026-03-09T06:07:57.311616","MEAN_MOTION":15.30185093,"ECCENTRICITY":0.00015148,"INCLINATION":53.1625,"RA_OF_ASC_NODE":26.448,"ARG_OF_PERICENTER":84.0593,"MEAN_ANOMALY":276.058,"EPHEMERIS_TYPE":0,"CLASSIFICATION_TYPE":"U","NORAD_CAT_ID":57947,"ELEMENT_SET_NO":999,"REV_AT_EPOCH":13835,"BSTAR":-7.8200386e-5,"MEAN_MOTION_DOT":-2.673e-5,"MEAN_MOTION_DDOT":0},{"OBJECT_NAME":"NUSAT-49 (KLARA DAN VON NEUMANN)","OBJECT_ID":"2024-149AJ","EPOCH":"2026-03-09T19:09:16.004160","MEAN_MOTION":15.30828857,"ECCENTRICITY":0.00011321,"INCLINATION":97.3807,"RA_OF_ASC_NODE":150.738,"ARG_OF_PERICENTER":286.7761,"MEAN_ANOMALY":73.3356,"EPHEMERIS_TYPE":0,"CLASSIFICATION_TYPE":"U","NORAD_CAT_ID":60500,"ELEMENT_SET_NO":999,"REV_AT_EPOCH":8693,"BSTAR":0.00043568345,"MEAN_MOTION_DOT":0.00012912,"MEAN_MOTION_DDOT":0}]
