STARLINK-30706          
1 57947U 23148N   26068.25552444 -.00002673  00000+0 -78200-4 0  9993
2 57947  53.1625  26.4480 0001514  84.0593 276.0580 15.30185093138353
NUSAT-49 (KLARA DAN VO*)
1 60500U 24149AJ  26068.79810190  .00012912  00000+0  43568-3 0  9991
2 60500  97.3807 150.7380 0001132 286.7761  73.3356 15.30828857 86935
